IRIDIUM 159             
1 43578U 18061K   25328.99377819  .00000065  00000+0  16223-4 0  9994
2 43578  86.3963 142.0808 0002177  87.3957 272.7488 14.34218129384113
IRIDIUM 180             
1 43922U 19002A   25329.06305091  .00000393  00000+0  13322-3 0  9995
2 43922  86.3961  78.9304 0002059  90.6692 269.4739 14.34219626359739
IRIDIUM 176             
1 43923U 19002B   25329.05195534  .00001358  00000+0  21136-3 0  9998
2 43923  86.6084  78.9082 0001882  98.9384 261.2046 14.72271981369213
IRIDIUM 168             
1 43924U 19002C   25328.77763181  .00000395  00000+0  13385-3 0  9993
2 43924  86.3964  79.1213 0002033  93.0855 267.0573 14.34219860359679
IRIDIUM 173             
1 43925U 19002D   25329.04402441  .00000389  00000+0  13172-3 0  9991
2 43925  86.3960  78.9072 0001931  94.3704 265.7713 14.34219076359691
IRIDIUM 169             
1 43926U 19002E   25328.89738245  .00000506  00000+0  15887-3 0  9994
2 43926  86.4205 110.6187 0000892 104.0376 256.0922 14.38611893360857
IRIDIUM 172             
1 43927U 19002F   25329.03768030  .00000392  00000+0  13303-3 0  9991
2 43927  86.3959  78.9169 0002093  89.3169 270.8266 14.34219713359707
IRIDIUM 175             
1 43928U 19002G   25329.11519610  .00001161  00000+0  18015-3 0  9999
2 43928  86.1520  22.2833 0002859 106.8309 253.3221 14.72246641369217
